ONEWEB-0389             
1 50469U 21132A   24194.89141802  .00000021  00000+0  20778-4 0  9996
2 50469  87.9185 146.0957 0002012  94.4465 265.6897 13.17649935126621
ONEWEB-0390             
1 50470U 21132B   24194.89304056  .00000064  00000+0  13196-3 0  9992
2 50470  87.9184 146.1024 0001700  84.8638 275.2688 13.17650791125330
ONEWEB-0391             
1 50471U 21132C   24194.89464964 -.00000002  00000+0 -39314-4 0  9993
2 50471  87.9194 146.0875 0002144  92.1864 267.9513 13.17650304126629
ONEWEB-0392             
1 50472U 21132D   24194.84779914  .00000033  00000+0  52956-4 0  9992
2 50472  87.9178 146.0936 0002089  97.8658 262.2711 13.17649863125367
ONEWEB-0393             
1 50473U 21132E   24194.89803753  .00000013  00000+0  59784-6 0  9993
2 50473  87.9190 146.0626 0002037  89.4148 270.7217 13.17647075126653
ONEWEB-0394             
1 50474U 21132F   24194.81218060  .00000083  00000+0  17725-3 0  9990
2 50474  87.9145 115.6808 0002091  81.1121 279.0248 13.18686173128761
ONEWEB-0395             
1 50475U 21132G   24194.94784515 -.00000298  00000+0 -87790-3 0  9997
2 50475  87.8977 161.2574 0001939  91.2679 268.8671 13.11417714123410
ONEWEB-0396             
1 50476U 21132H   24194.80585133  .00000048  00000+0  90085-4 0  9991
2 50476  87.9152 115.6810 0002137  81.7561 278.3813 13.18688005128800
ONEWEB-0397             
1 50477U 21132J   24194.82008217  .00000046  00000+0  83637-4 0  9990
2 50477  87.9151 115.6793 0002292  78.8929 281.2460 13.18685292128780
ONEWEB-0398             
1 50478U 21132K   24194.91564020  .00000082  00000+0  19462-3 0  9994
2 50478  87.8968 161.2426 0001593  85.6893 274.4417 13.11415895123307
ONEWEB-0399             
1 50479U 21132L   24194.90207245  .00000526  00000+0  14484-2 0  9998
2 50479  87.8971 161.2627 0002448  86.2831 273.8577 13.11415484123296
ONEWEB-0400             
1 50480U 21132M   24194.79952378  .00000056  00000+0  10905-3 0  9994
2 50480  87.9148 115.6859 0001812  75.1130 285.0203 13.18688176128774
ONEWEB-0401             
1 50481U 21132N   24194.84221652 -.00000004  00000+0 -42542-4 0  9993
2 50481  87.9145 115.6742 0002315  76.1413 283.9977 13.18686701128785
ONEWEB-0402             
1 50482U 21132P   24194.80742243  .00000062  00000+0  12541-3 0  9991
2 50482  87.9145 115.6782 0002796  72.0303 288.1134 13.18684200128803
ONEWEB-0403             
1 50483U 21132Q   24194.83113400  .00000018  00000+0  12088-4 0  9990
2 50483  87.9149 115.6819 0002206  81.3871 278.7511 13.18687499128760
ONEWEB-0404             
1 50484U 21132R   24194.88342244  .00000232  00000+0  61888-3 0  9995
2 50484  87.8981 161.2402 0002208  95.4788 264.6592 13.11419261123383
ONEWEB-0405             
1 50485U 21132S   24194.84694333  .00000052  00000+0  10026-3 0  9999
2 50485  87.9148 115.6684 0002488  76.8984 283.2426 13.18684461129164
ONEWEB-0406             
1 50486U 21132T   24194.83587492  .00000084  00000+0  18008-3 0  9999
2 50486  87.9146 115.6821 0001568  95.6883 264.4428 13.18687697128796
ONEWEB-0407             
1 50487U 21132U   24194.82956132 -.00000035  00000+0 -12168-3 0  9999
2 50487  87.9145 115.6845 0002203  79.2970 280.8410 13.18687172128739
ONEWEB-0409             
1 50488U 21132V   24194.95803452  .00000128  00000+0  32575-3 0  9995
2 50488  87.8973 161.2198 0001875  95.5073 264.6269 13.11419490123281
ONEWEB-0412             
1 50489U 21132W   24194.81850239  .00000081  00000+0  17164-3 0  9991
2 50489  87.9151 115.6874 0002561  76.5463 283.5955 13.18685823128829
ONEWEB-0413             
1 50490U 21132X   24194.82324260  .00000077  00000+0  16240-3 0  9993
2 50490  87.9151 115.6994 0002430  72.4132 287.7266 13.18687818128767
ONEWEB-0414             
1 50491U 21132Y   24194.80901191  .00000123  00000+0  28008-3 0  9993
2 50491  87.9146 115.6795 0002352  81.2244 278.9154 13.18687521128798
ONEWEB-0417             
1 50492U 21132Z   24194.81691611  .00000723  00000+0  18008-2 0  9992
2 50492  87.9155 115.6827 0001927  86.4540 273.6813 13.18692160128775
ONEWEB-0418             
1 50493U 21132AA  24194.82627595  .00000046  00000+0  84032-4 0  9994
2 50493  87.9150 115.6829 0001954  93.2626 266.8729 13.18686543128839
ONEWEB-0419             
1 50494U 21132AB  24194.84380510  .00000077  00000+0  16321-3 0  9999
2 50494  87.9144 115.6958 0001721  82.0971 278.0357 13.18685087128752
ONEWEB-0420             
1 50495U 21132AC  24194.81060042  .00000034  00000+0  54543-4 0  9994
2 50495  87.9147 115.7110 0002179  69.8936 290.2430 13.18686632128743
ONEWEB-0421             
1 50496U 21132AD  24194.80427930  .00000038  00000+0  63151-4 0  9996
2 50496  87.9155 115.6801 0002454  80.0751 280.0658 13.18687601128785
ONEWEB-0424             
1 50497U 21132AE  24194.83905087 -.00000001  00000+0 -34287-4 0  9994
2 50497  87.9149 115.6780 0001466  78.3043 281.8253 13.18685957128817
ONEWEB-0426             
1 50498U 21132AF  24194.80111239  .00000026  00000+0  32781-4 0  9992
2 50498  87.9144 115.7015 0002395  92.8982 267.2424 13.18688404128751
ONEWEB-0427             
1 50499U 21132AG  24194.83747214  .00000005  00000+0 -19913-4 0  9994
2 50499  87.9145 115.6723 0002015  84.9704 275.1658 13.18687262128782
ONEWEB-0429             
1 50500U 21132AH  24194.82482662  .00000045  00000+0  81496-4 0  9997
2 50500  87.9153 115.6824 0002104  72.9797 287.1565 13.18687724128754
ONEWEB-0430             
1 50501U 21132AJ  24194.81374155 -.00000178  00000+0 -48299-3 0  9996
2 50501  87.9147 115.6882 0001693  68.3761 291.7551 13.18686101128792
ONEWEB-0432             
1 50502U 21132AK  24194.84536763  .00000080  00000+0  16949-3 0  9992
2 50502  87.9146 115.6747 0001547  80.6512 279.4795 13.18688140128755
ONEWEB-0440             
1 50503U 21132AL  24194.75684922  .00000055  00000+0  10784-3 0  9997
2 50503  87.9151 115.6816 0002611  75.3159 284.8262 13.18687755128738
ONEWEB-0450             
1 50504U 21132AM  24194.82652691  .00000050  00000+0  94533-4 0  9994
2 50504  87.9151 115.6962 0001964  66.2992 293.8346 13.18688699128770
ONEWEB-0410             
1 51622U 22012A   24194.90920873  .00000048  00000+0  91302-4 0  9991
2 51622  87.9182 146.0730 0002847 113.8586 246.2844 13.17650287120954
ONEWEB-0411             
1 51623U 22012B   24194.92050075 -.00000013  00000+0 -74324-4 0  9991
2 51623  87.8952 176.3111 0001408  76.1257 284.0027 13.10376842117051
ONEWEB-0415             
1 51624U 22012C   24194.91717848 -.00000166  00000+0 -51127-3 0  9993
2 51624  87.8948 176.3327 0001667  86.5898 273.5420 13.10376656117052
ONEWEB-0416             
1 51625U 22012D   24194.92879680  .00000459  00000+0  12799-2 0  9992
2 51625  87.8953 176.3265 0002065  86.8845 273.2518 13.10378059117096
ONEWEB-0422             
1 51626U 22012E   24194.91889367  .00000033  00000+0  52350-4 0  9992
2 51626  87.9184 146.0714 0002515  65.0291 295.1102 13.17649713121060
ONEWEB-0423             
1 51627U 22012F   24194.91243120  .00000057  00000+0  11374-3 0  9990
2 51627  87.9185 146.0740 0002214  80.9852 279.1530 13.17651105120958
ONEWEB-0425             
1 51628U 22012G   24194.93878114  .00000658  00000+0  18500-2 0  9994
2 51628  87.8947 176.3074 0002371  91.8260 268.3138 13.10373345117093
ONEWEB-0428             
1 51629U 22012H   24194.91884279 -.00000078  00000+0 -25850-3 0  9997
2 51629  87.8952 176.3270 0001916  77.1421 282.9920 13.10376330117052
ONEWEB-0431             
1 51630U 22012J   24194.88882072 -.00000291  00000+0 -87007-3 0  9993
2 51630  87.8937 176.3285 0001524  68.2983 291.8307 13.10370824117108
ONEWEB-0434             
1 51631U 22012K   24194.94209909  .00000693  00000+0  19494-2 0  9991
2 51631  87.8948 176.3342 0002160  81.6102 278.5270 13.10372039117093
ONEWEB-0435             
1 51632U 22012L   24194.95039345  .00000438  00000+0  12183-2 0  9993
2 51632  87.8945 176.3238 0002182  74.7240 285.4129 13.10370845117087
ONEWEB-0436             
1 51633U 22012M   24194.90436240  .00000040  00000+0  70852-4 0  9992
2 51633  87.9182 146.0790 0002201  76.2640 283.8736 13.17648322120931
ONEWEB-0438             
1 51634U 22012N   24194.93379346  .00000607  00000+0  17037-2 0  9992
2 51634  87.8951 176.3274 0002211  89.5969 270.5412 13.10374393117117
ONEWEB-0439             
1 51635U 22012P   24194.93709702  .00000678  00000+0  19043-2 0  9993
2 51635  87.8952 176.3119 0002060  83.4728 276.6634 13.10378947117094
ONEWEB-0442             
1 51636U 22012Q   24194.89707554  .00000035  00000+0  56247-4 0  9998
2 51636  87.9184 146.1164 0002052 103.6805 256.4555 13.17651300120928
ONEWEB-0443             
1 51637U 22012R   24194.91565809  .00000032  00000+0  48003-4 0  9995
2 51637  87.9186 146.1207 0002534  75.6949 284.4464 13.17650531120971
ONEWEB-0444             
1 51638U 22012S   24194.92714190  .00000363  00000+0  10036-2 0  9996
2 51638  87.8947 176.3343 0002178  80.8573 279.2800 13.10377797117107
ONEWEB-0445             
1 51639U 22012T   24194.94873254  .00000491  00000+0  13717-2 0  9997
2 51639  87.8937 176.3012 0001867  92.8221 267.3120 13.10371227117113
ONEWEB-0446             
1 51640U 22012U   24194.92548709  .00000300  00000+0  82282-3 0  9994
2 51640  87.8953 176.3321 0001770  91.7362 268.3968 13.10376491117099
ONEWEB-0448             
1 51641U 22012V   24194.93047435  .00000501  00000+0  13997-2 0  9995
2 51641  87.8951 176.3318 0002129  82.8772 277.2597 13.10375083117069
ONEWEB-0449             
1 51642U 22012W   24194.93544895  .00000629  00000+0  17656-2 0  9995
2 51642  87.8944 176.3246 0002231  92.4088 267.7295 13.10376650117074
ONEWEB-0451             
1 51643U 22012X   24194.90111050  .00000051  00000+0  98019-4 0  9999
2 51643  87.9178 146.0766 0002278  81.2405 278.8985 13.17649419120915
ONEWEB-0452             
1 51644U 22012Y   24194.89950233  .00000040  00000+0  69197-4 0  9995
2 51644  87.9185 146.1185 0002442  85.5873 274.5537 13.17649978120926
